{
  "type": "FeatureCollection",
  "name": "Chennai_Flood_Management_Zones",
  "crs": {
    "type": "name",
    "properties": {
      "name": "urn:ogc:def:crs:OGC:1.3:CRS84"
    }
  },
  "features": [
    {
      "type": "Feature",
      "properties": {
        "zone_id": "ZONE_01_CENTRAL",
        "name": "Central Chennai - Cooum Basin",
        "ward_numbers": [
          109,
          110,
          111,
          112,
          113
        ],
        "population_estimate": 420000,
        "flood_risk_baseline": "HIGH",
        "drainage_basin": "Cooum River"
      },
      "geometry": {
        "type": "Polygon",
        "coordinates": [
          [
            [
              80.22,
              13.06
            ],
            [
              80.28,
              13.06
            ],
            [
              80.28,
              13.095
            ],
            [
              80.22,
              13.095
            ],
            [
              80.22,
              13.06
            ]
          ]
        ]
      }
    },
    {
      "type": "Feature",
      "properties": {
        "zone_id": "ZONE_02_SOUTH",
        "name": "South Chennai - Adyar Basin",
        "ward_numbers": [
          170,
          171,
          172,
          173,
          174
        ],
        "population_estimate": 380000,
        "flood_risk_baseline": "CRITICAL",
        "drainage_basin": "Adyar River"
      },
      "geometry": {
        "type": "Polygon",
        "coordinates": [
          [
            [
              80.21,
              13.0
            ],
            [
              80.27,
              13.0
            ],
            [
              80.27,
              13.055
            ],
            [
              80.21,
              13.055
            ],
            [
              80.21,
              13.0
            ]
          ]
        ]
      }
    },
    {
      "type": "Feature",
      "properties": {
        "zone_id": "ZONE_03_WEST",
        "name": "West Chennai - Chembarambakkam Runoff",
        "ward_numbers": [
          140,
          141,
          142,
          143
        ],
        "population_estimate": 310000,
        "flood_risk_baseline": "HIGH",
        "drainage_basin": "Porur Lake Outfall"
      },
      "geometry": {
        "type": "Polygon",
        "coordinates": [
          [
            [
              80.15,
              13.02
            ],
            [
              80.21,
              13.02
            ],
            [
              80.21,
              13.08
            ],
            [
              80.15,
              13.08
            ],
            [
              80.15,
              13.02
            ]
          ]
        ]
      }
    },
    {
      "type": "Feature",
      "properties": {
        "zone_id": "ZONE_04_NORTH",
        "name": "North Chennai - Buckingham Canal North",
        "ward_numbers": [
          45,
          46,
          47,
          48
        ],
        "population_estimate": 290000,
        "flood_risk_baseline": "MODERATE",
        "drainage_basin": "Otteri Nullah"
      },
      "geometry": {
        "type": "Polygon",
        "coordinates": [
          [
            [
              80.22,
              13.1
            ],
            [
              80.28,
              13.1
            ],
            [
              80.28,
              13.15
            ],
            [
              80.22,
              13.15
            ],
            [
              80.22,
              13.1
            ]
          ]
        ]
      }
    }
  ]
}