{
  "type": "FeatureCollection",
  "name": "Chennai_Major_Waterways_and_Drainage_Corridors",
  "crs": {
    "type": "name",
    "properties": {
      "name": "urn:ogc:def:crs:OGC:1.3:CRS84"
    }
  },
  "features": [
    {
      "type": "Feature",
      "properties": {
        "corridor_id": "CORRIDOR_COOUM",
        "name": "Cooum River Natural Flood Plain",
        "flood_carry_capacity_cusecs": 25000,
        "spillway_buffer_meters": 100
      },
      "geometry": {
        "type": "LineString",
        "coordinates": [
          [
            80.17,
            13.072
          ],
          [
            80.21,
            13.075
          ],
          [
            80.245,
            13.078
          ],
          [
            80.265,
            13.073
          ],
          [
            80.285,
            13.069
          ]
        ]
      }
    },
    {
      "type": "Feature",
      "properties": {
        "corridor_id": "CORRIDOR_ADYAR",
        "name": "Adyar River Natural Flood Plain",
        "flood_carry_capacity_cusecs": 55000,
        "spillway_buffer_meters": 150
      },
      "geometry": {
        "type": "LineString",
        "coordinates": [
          [
            80.18,
            13.018
          ],
          [
            80.215,
            13.015
          ],
          [
            80.24,
            13.011
          ],
          [
            80.26,
            13.008
          ],
          [
            80.278,
            13.005
          ]
        ]
      }
    },
    {
      "type": "Feature",
      "properties": {
        "corridor_id": "CORRIDOR_BUCKINGHAM",
        "name": "Buckingham Canal Tidal Reach",
        "flood_carry_capacity_cusecs": 12000,
        "spillway_buffer_meters": 50
      },
      "geometry": {
        "type": "LineString",
        "coordinates": [
          [
            80.278,
            13.12
          ],
          [
            80.275,
            13.08
          ],
          [
            80.265,
            13.04
          ],
          [
            80.26,
            13.0
          ]
        ]
      }
    }
  ]
}