{
  "type": "FeatureCollection",
  "name": "Educational_Institutions_and_Staging_Centers",
  "crs": {
    "type": "name",
    "properties": {
      "name": "urn:ogc:def:crs:OGC:1.3:CRS84"
    }
  },
  "features": [
    {
      "type": "Feature",
      "properties": {
        "id": "SCH_01",
        "name": "Presidency Girls Higher Secondary School Egmore",
        "category": "SCHOOL",
        "capacity": 800,
        "elevation_m": 7.5,
        "has_large_courtyard": true,
        "zone_id": "ZONE_01_CENTRAL"
      },
      "geometry": {
        "type": "Point",
        "coordinates": [
          80.258,
          13.076
        ]
      }
    },
    {
      "type": "Feature",
      "properties": {
        "id": "SCH_02",
        "name": "St. Bede's Anglo Indian School Santhome",
        "category": "SCHOOL",
        "capacity": 1200,
        "elevation_m": 5.8,
        "has_large_courtyard": true,
        "zone_id": "ZONE_02_SOUTH"
      },
      "geometry": {
        "type": "Point",
        "coordinates": [
          80.278,
          13.034
        ]
      }
    },
    {
      "type": "Feature",
      "properties": {
        "id": "SCH_03",
        "name": "Kendriya Vidyalaya CLRI Adyar",
        "category": "SCHOOL",
        "capacity": 950,
        "elevation_m": 6.8,
        "has_large_courtyard": true,
        "zone_id": "ZONE_02_SOUTH"
      },
      "geometry": {
        "type": "Point",
        "coordinates": [
          80.245,
          13.007
        ]
      }
    },
    {
      "type": "Feature",
      "properties": {
        "id": "SCH_04",
        "name": "Corporation Boys Higher Sec School Saidapet",
        "category": "SCHOOL",
        "capacity": 650,
        "elevation_m": 4.5,
        "has_large_courtyard": false,
        "zone_id": "ZONE_02_SOUTH"
      },
      "geometry": {
        "type": "Point",
        "coordinates": [
          80.221,
          13.018
        ]
      }
    }
  ]
}